[{"OBJECT_NAME":"STARLINK-31116","OBJECT_ID":"2024-027S","EPOCH":"2026-03-09T22:14:46.341600","MEAN_MOTION":15.3018636,"ECCENTRICITY":0.00010289,"INCLINATION":53.1607,"RA_OF_ASC_NODE":308.5889,"ARG_OF_PERICENTER":104.816,"MEAN_ANOMALY":255.2955,"EPHEMERIS_TYPE":0,"CLASSIFICATION_TYPE":"U","NORAD_CAT_ID":58947,"ELEMENT_SET_NO":999,"REV_AT_EPOCH":11736,"BSTAR":4.776632e-5,"MEAN_MOTION_DOT":1.055e-5,"MEAN_MOTION_DDOT":0},{"OBJECT_NAME":"CZ-6A DEB","OBJECT_ID":"2024-140RA","EPOCH":"2026-03-09T01:51:18.259488","MEAN_MOTION":15.31763252,"ECCENTRICITY":0.00411794,"INCLINATION":89.1856,"RA_OF_ASC_NODE":296.0787,"ARG_OF_PERICENTER":96.6516,"MEAN_ANOMALY":263.9425,"EPHEMERIS_TYPE":0,"CLASSIFICATION_TYPE":"U","NORAD_CAT_ID":61156,"ELEMENT_SET_NO":999,"REV_AT_EPOCH":8391,"BSTAR":0.0079173326,"MEAN_MOTION_DOT":0.00256788,"MEAN_MOTION_DDOT":0}]
